[{"OBJECT_NAME":"LYRA-4","OBJECT_ID":"2025-140A","EPOCH":"2026-03-09T22:14:48.302880","MEAN_MOTION":14.72230607,"ECCENTRICITY":0.00130646,"INCLINATION":95.9893,"RA_OF_ASC_NODE":215.2508,"ARG_OF_PERICENTER":170.6132,"MEAN_ANOMALY":189.5328,"EPHEMERIS_TYPE":0,"CLASSIFICATION_TYPE":"U","NORAD_CAT_ID":64691,"ELEMENT_SET_NO":999,"REV_AT_EPOCH":3745,"BSTAR":0.00032811988,"MEAN_MOTION_DOT":2.043e-5,"MEAN_MOTION_DDOT":0},{"OBJECT_NAME":"FENGYUN 1C DEB","OBJECT_ID":"1999-025CKD","EPOCH":"2026-02-28T13:50:26.166336","MEAN_MOTION":14.88090782,"ECCENTRICITY":0.00820173,"INCLINATION":99.4445,"RA_OF_ASC_NODE":2.7077,"ARG_OF_PERICENTER":355.7359,"MEAN_ANOMALY":4.3144,"EPHEMERIS_TYPE":0,"CLASSIFICATION_TYPE":"U","NORAD_CAT_ID":31878,"ELEMENT_SET_NO":999,"REV_AT_EPOCH":99250,"BSTAR":0.001844343,"MEAN_MOTION_DOT":0.00018017,"MEAN_MOTION_DDOT":0}]
